P/2022 R4 (PANSTARRS),e,21.0194,176.6294,197.4662,3.837058,0.1311314,0.48998509,81.2583,03/21.0/2024,2000,g 16.5,4.0
# From MPEC 2022-WQ9
P/2022 R5 (PANSTARRS),e,15.2942,115.0503,240.5586,3.068788,0.1833385,0.19520026,121.7033,03/21.0/2024,2000,g 16.0,4.0
# From MPEC 2024-F34
C/2022 R6 (PANSTARRS),h,08/25.5751/2025,57.0214,150.7770,319.8610,1.004459,6.566950,2000,5.0,4.0
# From MPEC 2023-HD1
P/2022 S1 (PANSTARRS),e,34.5777,136.0935,262.7971,6.408376,0.0607550,0.50803733,35.2222,03/21.0/2024,2000,g 15.1,4.0
# From MPEC 2022-VC5
C/2022 S3 (PANSTARRS),h,01/21.6946/2023,78.5334,157.3104,267.9661,1.000401,0.838320,2000,17.0,4.0
# From MPEC 2024-EF7
C/2022 S4 (Lemmon),e,101.2207,220.1742,268.5484,1195,0.0000239,0.99768847,0.0000,07/18.7263/2024,2000,g  8.0,4.0
# From MPEC 2023-HD1
C/2022 S5 (PANSTARRS),e,136.5314,214.8602,232.8033,20.46850,0.0106433,0.89353404,5.1029,03/21.0/2024,2000,g 16.3,4.0
# From MPEC 2024-F34
C/2022 T1 (Lemmon),e,22.5440,236.9186,324.3084,90859,0.0000000,0.99996208,0.0000,02/17.4686/2024,2000,g  9.0,4.0
# From MPEC 2024-DC6
C/2022 U1 (Leonard),e,128.1496,72.5264,78.5835,6931,0.0000017,0.99939371,0.0000,03/25.8648/2024,2000,g  8.5,4.0
# From MPEC 2023-VM5
C/2022 U2 (ATLAS),e,48.2450,304.4554,147.9341,96.77289,0.0010353,0.98627518,0.0000,01/14.2422/2023,2000,g 16.0,4.0
# From MPEC 2024-F34
C/2022 U3 (Bok),h,07/28.2779/2024,33.6472,272.7846,189.0770,1.002720,4.826536,2000,7.5,4.0
# From MPEC 2023-W26
C/2022 U4 (Bok),e,52.0376,132.9197,89.0062,3027,0.0000059,0.99904250,0.0000,08/03.6549/2023,2000,g 10.5,4.0
# From MPEC 2024-F34
C/2022 V2 (Lemmon),e,98.9030,332.8704,168.9506,36.81968,0.0044115,0.94395387,0.6179,03/21.0/2024,2000,g 12.0,4.0
# From MPEC 2023-CD7
P/2022 W1 (Rankin),e,13.4659,38.8166,17.8494,6.970325,0.0535580,0.51664733,29.5646,03/21.0/2024,2000,g 12.5,4.0
# From MPEC 2024-EF7
C/2022 W2 (ATLAS),e,63.5224,320.4509,123.2774,343.2138,0.0001550,0.99090040,0.0000,03/08.7588/2023,2000,g 11.5,4.0
# From MPEC 2024-C04
C/2022 W3 (Leonard),e,103.5618,132.2713,116.5250,279.6059,0.0002108,0.99500094,0.0000,06/22.7747/2023,2000,g 13.0,4.0
# From MPEC 2023-M14
C/2022 Y1 (Hogan),e,18.8553,285.8999,174.7882,12.58105,0.0220866,0.76486542,10.5928,03/21.0/2024,2000,g  9.0,4.0
# From MPEC 2023-TM6
C/2022 Y2 (Lemmon),e,165.8876,216.3524,105.4695,19.81758,0.0111719,0.87176821,4.0706,03/21.0/2024,2000,g 13.5,4.0
# From MPEC 2023-KD6
C/2023 A1 (Leonard),e,94.7384,318.3012,159.2477,224.1464,0.0002937,0.99181424,0.0000,03/18.7025/2023,2000,g 14.5,4.0
# From MPEC 2023-J95
C/2023 A2 (SWAN),e,94.7103,94.4833,142.5507,444.0121,0.0001053,0.99786730,0.0000,01/20.3690/2023,2000,g 13.5,4.0
# From MPEC 2024-F34
C/2023 A3 (Tsuchinshan-ATLAS),h,09/27.7456/2024,139.1125,21.5598,308.4898,1.000110,0.391454,2000,5.0,4.0
# From MPEC 2024-F34
P/2023 B1 (PANSTARRS),e,14.5881,78.5641,81.5416,7.057248,0.0525716,0.12993494,17.0774,03/21.0/2024,2000,g  5.5,4.0
# From MPEC 2023-XP6
C/2023 B2 (ATLAS),e,40.7711,218.1194,317.3806,597.6154,0.0000675,0.99708407,0.0000,03/10.4871/2023,2000,g 14.5,4.0
# From MPEC 2023-F81
P/2023 B3 (PANSTARRS),e,9.1601,154.0037,240.1599,4.546947,0.1016539,0.12305167,131.3921,03/21.0/2024,2000,g 10.5,4.0
# From MPEC 2024-F34
C/2023 C2 (ATLAS),e,48.3168,301.0090,357.4574,3293,0.0000052,0.99928084,0.0000,11/16.8145/2024,2000,g  7.0,4.0
# From MPEC 2024-D33
C/2023 E1 (ATLAS),e,38.3007,164.5587,105.9253,19.37140,0.0115601,0.94698764,3.0506,03/21.0/2024,2000,g 15.5,4.0
# From MPEC 2023-N01
C/2023 F1 (PANSTARRS),e,131.7502,25.2522,216.6764,262.2734,0.0002320,0.99348541,0.0000,06/28.3671/2023,2000,g 16.0,4.0
# From MPEC 2024-F34
C/2023 F3 (ATLAS),h,02/02.7267/2025,145.9608,109.4520,265.5348,1.004312,5.190584,2000,6.0,4.0
# From MPEC 2023-M14
C/2023 H1 (PANSTARRS),e,21.7784,292.6352,333.8410,1527,0.0000165,0.99709031,0.0000,11/28.3634/2024,2000,g 12.6,4.0
# From MPEC 2024-EF7
C/2023 H2 (Lemmon),e,113.7536,217.0447,150.6454,243.9962,0.0002586,0.99633444,0.0000,10/29.1863/2023,2000,g 14.0,4.0
# From MPEC 2023-R20
C/2023 H3 (PANSTARRS),e,2.4893,55.0997,193.3180,13.62741,0.0195922,0.61601281,0.6089,03/21.0/2024,2000,g 10.0,4.0
# From MPEC 2023-SQ0
A/2023 H4,e,76.6189,230.8131,64.9115,140.9219,0.0005892,0.98495924,0.0000,08/08.8293/2023,2000,g 18.0,22.0
# From MPEC 2024-F34
C/2023 H5 (Lemmon),h,06/30.1565/2025,97.8684,159.4829,60.0783,1.000377,4.313031,2000,7.0,4.0
# From MPEC 2024-F34
C/2023 K1 (ATLAS),e,137.9985,223.7057,337.4613,740.8018,0.0000489,0.99724700,0.0000,09/07.7268/2023,2000,g 13.0,4.0
# From MPEC 2023-N01
P/2023 M1 (PANSTARRS),e,12.2883,216.8622,79.6883,6.846922,0.0550125,0.58725164,5.3696,03/21.0/2024,2000,g 13.5,4.0
# From MPEC 2024-BE0
P/2023 M2 (PANSTARRS),e,19.7255,83.2614,243.0563,5.564896,0.0750790,0.36951616,17.9826,03/21.0/2024,2000,g 12.5,4.0
# From MPEC 2024-A43
P/2023 M4 (ATLAS),e,7.5925,296.2954,320.6677,5.451467,0.0774344,0.27916736,54.6801,03/21.0/2024,2000,g  7.5,4.0
# From MPEC 2024-F34
C/2023 P1 (Nishimura),e,132.4769,66.8372,116.2959,57.07730,0.0022856,0.99605658,0.0000,09/17.6431/2023,2000,g 10.0,4.0
# From MPEC 2024-D33
C/2023 Q1 (PANSTARRS),h,12/01.2303/2024,36.6594,7.1565,84.4117,1.004965,2.575552,2000,10.0,4.0
# From MPEC 2023-XP6
C/2023 Q2 (PANSTARRS),e,104.0569,92.6798,171.7224,344.9975,0.0001538,0.99069731,0.0000,06/24.0728/2024,2000,g 11.5,4.0
# From MPEC 2024-D33
C/2023 R1 (PANSTARRS),h,04/13.8691/2026,149.3156,62.5515,144.2947,1.001200,3.569760,2000,6.0,4.0
# From MPEC 2024-EF7
C/2023 R2 (PANSTARRS),h,08/12.1473/2024,30.6920,188.9202,337.2895,1.000275,0.905268,2000,10.5,4.0
# From MPEC 2023-UR6
A/2023 R3,e,12.0865,347.3510,86.8945,657.0886,0.0000585,0.99793397,0.0000,12/18.1830/2023,2000,g 20.0,22.0
# From MPEC 2024-BE0
C/2023 RN3 (ATLAS),e,10.3571,207.0686,130.3959,10.16141,0.0304280,0.49083823,12.9946,03/21.0/2024,2000,g  7.5,4.0
# From MPEC 2024-EF7
P/2023 S1,e,9.1482,317.3911,180.0766,3.852527,0.1303424,0.31994200,315.7393,03/21.0/2024,2000,g 11.5,4.0
# From MPEC 2023-XP6
C/2023 S2 (ATLAS),e,20.4860,230.5612,78.1181,155.4405,0.0005086,0.99313089,0.0000,10/15.3941/2023,2000,g 15.0,4.0
# From MPEC 2024-F34
C/2023 S3 (Lemmon),e,140.4982,233.8338,281.5722,28.48104,0.0064844,0.97085215,0.0000,01/19.6240/2024,2000,g 16.0,4.0
# From MPEC 2024-BE0
P/2023 T1 (PANSTARRS),e,6.6115,249.5739,202.8663,4.231425,0.1132333,0.33419952,352.8770,03/21.0/2024,2000,g 14.0,4.0
# From MPEC 2024-EF7
C/2023 T2 (Borisov),e,48.5980,317.5320,111.1956,229.2624,0.0002839,0.99129619,0.0000,12/22.7935/2023,2000,g 14.5,4.0
# From MPEC 2024-F34
C/2023 T3 (Fuls),e,27.2220,246.0013,302.8496,705.7107,0.0000526,0.99497197,0.0000,01/25.3832/2025,2000,g  8.5,4.0
# From MPEC 2024-F34
C/2023 U1 (Fuls),e,108.1473,305.8106,255.6024,2451,0.0000081,0.99797073,0.0000,10/12.5560/2024,2000,g  8.0,4.0
# From MPEC 2024-A43
C/2023 V1 (Lemmon),e,102.0107,15.0274,103.3065,13981,0.0000006,0.99963572,0.0000,07/13.0827/2025,2000,g  8.5,4.0
# From MPEC 2024-D33
P/2023 V2 (PANSTARRS),e,9.8846,95.4740,330.5892,7.247968,0.0505103,0.57168413,2.3173,03/21.0/2024,2000,g 13.5,4.0
# From MPEC 2024-A43
C/2023 V3 (PANSTARRS),e,40.2826,91.4504,291.6094,13.26124,0.0204093,0.66276386,4.6407,03/21.0/2024,2000,g 11.5,4.0
# From MPEC 2024-EF7
C/2023 V4 (Camarasa-Duszanowicz),h,05/30.3643/2024,67.1296,66.3258,50.8525,1.001055,1.121738,2000,12.0,4.0
# From MPEC 2023-W26
C/2023 V5 (Leonard),h,12/13.4381/2023,73.9606,31.4433,56.3965,1.028234,0.849147,2000,21.5,4.0
# From MPEC 2024-AF0
P/2023 V6 (PANSTARRS),e,3.9761,190.0100,193.8577,5.333358,0.0800208,0.17825719,36.8144,03/21.0/2024,2000,g 11.5,4.0
# From MPEC 2024-C04
C/2023 X1 (Leonard),e,110.5894,137.0153,321.4879,168.7002,0.0004498,0.99436482,0.0000,10/18.0952/2023,2000,g 13.5,3.2
# From MPEC 2024-DC6
C/2023 X2 (Lemmon),h,12/26.0346/2025,76.9851,66.3120,64.4516,1.001314,5.100822,2000,8.5,3.2
# From MPEC 2024-A43
P/2023 X3 (PANSTARRS),e,4.4835,62.0137,40.8057,4.247580,0.1125879,0.28662346,356.4089,03/21.0/2024,2000,g 15.5,4.0
# From MPEC 2024-EF7
C/2023 X4 (Hogan),e,11.5948,28.7656,100.5348,9.910062,0.0315929,0.63087693,357.9552,03/21.0/2024,2000,g 12.0,4.0
# From MPEC 2024-DA2
C/2023 X7 (PANSTARRS),h,05/14.8528/2025,69.0551,119.2081,354.3392,1.002160,4.821371,2000,9.0,4.0
# From MPEC 2024-F34
P/2023 Y1 (Gibbs),e,6.3840,78.8568,51.4352,3.747855,0.1358407,0.44506996,15.2471,03/21.0/2024,2000,g 17.0,4.0
# From MPEC 2024-F34
P/2023 Y2 (Gibbs),e,6.9927,79.2302,16.8154,3.744598,0.1360180,0.39218198,30.4847,03/21.0/2024,2000,g 15.5,4.0
# From MPEC 2024-F34
C/2024 A1 (ATLAS),h,06/13.6593/2025,94.4482,112.1380,353.2940,1.001352,3.875901,2000,7.0,4.0
# From MPEC 2024-F34
C/2024 A2 (ATLAS),e,119.1111,78.1670,295.5769,32.32236,0.0053635,0.94178533,359.7914,03/21.0/2024,2000,g 12.5,4.0
# From MPEC 2024-D33
C/2024 B1 (Lemmon),h,10/07.6907/2024,70.8950,79.1888,66.2103,1.001110,1.633518,2000,13.0,4.0
# From MPEC 2024-EF7
C/2024 B2 (Lemmon),e,99.8385,294.3785,130.3164,5657,0.0000023,0.99927942,0.0000,10/06.0196/2023,2000,g 11.5,4.0
# From MPEC 2024-F34
C/2024 C1 (PANSTARRS),e,14.2266,83.8107,94.4897,10.55575,0.0287389,0.58196916,355.3141,03/21.0/2024,2000,g 11.5,4.0
# From MPEC 2024-EF7
C/2024 C2 (PANSTARRS),e,27.2840,66.4403,87.6241,16.17946,0.0151446,0.44435230,354.6041,03/21.0/2024,2000,g  6.0,4.0
# From MPEC 2024-F34
C/2024 C3 (PANSTARRS),e,22.4664,359.7081,159.6520,11.64164,0.0248132,0.42339715,3.3233,03/21.0/2024,2000,g  9.0,4.0
# From MPEC 2024-F34
C/2024 C4 (ATLAS),e,79.2899,220.6863,321.5315,84.96833,0.0012584,0.98268343,0.0000,01/30.2083/2024,2000,g 14.5,4.0
# From MPEC 2024-EG1
A/2024 D1,e,132.4565,179.6788,125.7177,1894,0.0000120,0.99645963,0.0000,12/04.7481/2027,2000,g 11.0,2.0
# From MPEC 2024-F34
C/2024 E1 (Wierzchos),h,01/19.4671/2026,75.2371,108.0649,243.6318,1.000734,0.563849,2000,7.0,4.0
# From  98, 1083
1P/Halley,e,162.2101,59.6718,112.5870,17.86854,0.0130488,0.96682306,181.3293,03/21.0/2024,2000,g  4.0,6.0
# From MPEC 2024-EF7
2P/Encke,e,11.3372,334.0175,187.2870,2.218577,0.2982581,0.84694229,44.8795,03/21.0/2024,2000,g 11.5,6.0
# From  76, 1135
